NORAD_CAT_ID,OBJECT_NAME,OBJECT_TYPE,EPOCH,MEAN_MOTION,ECCENTRICITY,INCLINATION,RA_OF_ASC_NODE,ARG_OF_PERICENTER,MEAN_ANOMALY,BSTAR,MEAN_MOTION_DOT,MEAN_MOTION_DDOT,TLE_LINE0,TLE_LINE1,TLE_LINE2,SEMIMAJOR_AXIS,PERIOD,APOGEE,PERIGEE,DECAYED
49178.0,STARLINK-3086,PAYLOAD,2024-05-26 04:08:51,14.98331402,0.0003482,69.9978,139.6719,270.216,89.86,-0.00010425,-1.337e-05,0.0,0 STARLINK-3086,1 49178U 21082BA  24147.17281584 -.00001337  00000-0 -10425-3 0  9997,2 49178  69.9978 139.6719 0003482 270.2160  89.8600 14.98331402149392,6950.189,96.107,574.474,569.633,0.0
49178.0,STARLINK-3086,PAYLOAD,2024-05-26 08:57:13,14.98363703,0.0003378,69.9988,139.1675,273.701,86.3763,0.00028499,3.312e-05,0.0,0 STARLINK-3086,1 49178U 21082BA  24147.37306930  .00003312  00000-0  28499-3 0  9995,2 49178  69.9988 139.1675 0003378 273.7010  86.3763 14.98363703149420,6950.089,96.105,574.301,569.606,0.0
49178.0,STARLINK-3086,PAYLOAD,2024-05-26 16:57:55,14.98328356,0.0003229,69.9981,138.3249,269.7565,90.3224,5.9057e-05,6.12e-06,0.0,0 STARLINK-3086,1 49178U 21082BA  24147.70689490  .00000612  00000-0  59057-4 0  9992,2 49178  69.9981 138.3249 0003229 269.7565  90.3224 14.98328356149473,6950.198,96.107,574.307,569.819,0.0
49178.0,STARLINK-3086,PAYLOAD,2024-05-26 23:22:28,14.9829348,0.0003629,69.9992,137.6515,275.4368,84.6377,0.00069934,8.254e-05,0.0,0 STARLINK-3086,1 49178U 21082BA  24147.97394461  .00008254  00000-0  69934-3 0  9996,2 49178  69.9992 137.6515 0003629 275.4368  84.6377 14.98293480149511,6950.306,96.109,574.693,569.649,0.0
49178.0,STARLINK-3086,PAYLOAD,2024-05-27 04:10:53,14.98294868,0.0003501,69.9981,137.1464,274.1532,85.9227,0.00074795,8.835e-05,0.0,0 STARLINK-3086,1 49178U 21082BA  24148.17422736  .00008835  00000-0  74795-3 0  9992,2 49178  69.9981 137.1464 0003501 274.1532  85.9227 14.98294868149547,6950.302,96.109,574.6,569.733,0.0
49178.0,STARLINK-3086,PAYLOAD,2024-05-27 08:59:17,14.98300168,0.0003541,69.9982,136.6415,275.3814,84.6941,0.00073552,8.687e-05,0.0,0 STARLINK-3086,1 49178U 21082BA  24148.37450869  .00008687  00000-0  73552-3 0  9997,2 49178  69.9982 136.6415 0003541 275.3814  84.6941 14.98300168149571,6950.285,96.109,574.611,569.689,0.0
49178.0,STARLINK-3086,PAYLOAD,2024-05-27 16:59:57,14.9833107,0.0003114,69.9981,135.8003,268.8184,91.2618,0.00016755,1.907e-05,0.0,0 STARLINK-3086,1 49178U 21082BA  24148.70829960  .00001907  00000-0  16755-3 0  9996,2 49178  69.9981 135.8003 0003114 268.8184  91.2618 14.98331070149624,6950.19,96.107,574.219,569.89,0.0
49178.0,STARLINK-3086,PAYLOAD,2024-05-28 09:01:17,14.98340429,0.0003112,69.9981,134.1166,267.3041,92.7762,0.00016895,1.924e-05,0.0,0 STARLINK-3086,1 49178U 21082BA  24149.37589166  .00001924  00000-0  16895-3 0  9995,2 49178  69.9981 134.1166 0003112 267.3041  92.7762 14.98340429149725,6950.161,96.106,574.189,569.863,0.0
49178.0,STARLINK-3086,PAYLOAD,2024-05-29 09:03:17,14.98345716,0.0003064,69.9983,131.592,265.5966,94.4843,0.00014142,1.595e-05,0.0,0 STARLINK-3086,1 49178U 21082BA  24150.37728140  .00001595  00000-0  14142-3 0  9991,2 49178  69.9983 131.5920 0003064 265.5966  94.4843 14.98345716149877,6950.144,96.106,574.139,569.88,0.0
49178.0,STARLINK-3086,PAYLOAD,2024-05-30 04:16:53,14.98340084,0.0002875,69.9988,129.5729,261.5173,98.566,2.3134e-05,1.83e-06,0.0,0 STARLINK-3086,1 49178U 21082BA  24151.17840247  .00000183  00000-0  23134-4 0  9997,2 49178  69.9988 129.5729 0002875 261.5173  98.5660 14.98340084149999,6950.162,96.106,574.025,570.029,0.0
49178.0,STARLINK-3086,PAYLOAD,2024-05-30 09:05:18,14.98340095,0.0002865,69.9988,129.0679,262.1469,97.9365,1.7673e-05,1.18e-06,0.0,0 STARLINK-3086,1 49178U 21082BA  24151.37868099  .00000118  00000-0  17673-4 0  9993,2 49178  69.9988 129.0679 0002865 262.1469  97.9365 14.98340095150025,6950.162,96.106,574.018,570.035,0.0
49178.0,STARLINK-3086,PAYLOAD,2024-05-31 04:18:54,14.98337449,0.0002699,69.9993,127.0482,260.4724,99.613,-1.945e-05,-3.25e-06,0.0,0 STARLINK-3086,1 49178U 21082BA  24152.17979939 -.00000325  00000-0 -19450-4 0  9995,2 49178  69.9993 127.0482 0002699 260.4724  99.6130 14.98337449150142,6950.17,96.107,573.911,570.159,0.0
49178.0,STARLINK-3086,PAYLOAD,2024-05-31 07:31:10,14.98336425,0.0002711,69.9993,126.7116,260.8306,99.2547,-3.3125e-05,-4.88e-06,0.0,0 STARLINK-3086,1 49178U 21082BA  24152.31331969 -.00000488  00000-0 -33125-4 0  9991,2 49178  69.9993 126.7116 0002711 260.8306  99.2547 14.98336425150160,6950.173,96.107,573.922,570.154,0.0
49178.0,STARLINK-3086,PAYLOAD,2024-05-31 21:56:23,14.98333106,0.0002848,69.9992,125.1966,266.2532,93.8302,2.7e-05,2.29e-06,0.0,0 STARLINK-3086,1 49178U 21082BA  24152.91415847  .00000229  00000-0  27000-4 0  9991,2 49178  69.9992 125.1966 0002848 266.2532  93.8302 14.98333106150259,6950.183,96.107,574.028,570.069,0.0
49178.0,STARLINK-3086,PAYLOAD,2024-06-01 04:20:56,14.98323606,0.0002904,69.9995,124.5221,282.2161,77.8672,-4.1625e-05,-5.9e-06,0.0,0 STARLINK-3086,1 49178U 21082BA  24153.18120673 -.00000590  00000-0 -41625-4 0  9993,2 49178  69.9995 124.5221 0002904 282.2161  77.8672 14.98323606150298,6950.213,96.107,574.096,570.059,0.0
49178.0,STARLINK-3086,PAYLOAD,2024-06-01 07:33:15,14.98281739,0.0002871,69.9993,124.1867,267.921,92.1621,-0.00052553,-6.35e-05,0.0,0 STARLINK-3086,1 49178U 21082BA  24153.31476497 -.00006350  00000-0 -52553-3 0  9997,2 49178  69.9993 124.1867 0002871 267.9210  92.1621 14.98281739150313,6950.342,96.11,574.203,570.212,0.0
49178.0,STARLINK-3086,PAYLOAD,2024-06-01 21:58:26,14.98307309,0.00034,69.9995,122.6718,272.7221,87.3549,-0.00015791,-1.976e-05,0.0,0 STARLINK-3086,1 49178U 21082BA  24153.91558822 -.00001976  00000-0 -15791-3 0  9998,2 49178  69.9995 122.6718 0003400 272.7221  87.3549 14.98307309150405,6950.263,96.108,574.491,569.765,0.0
49178.0,STARLINK-3086,PAYLOAD,2024-06-02 07:35:14,14.9832557,0.0002864,69.9994,121.6605,269.4396,90.6435,6.3922e-05,6.7e-06,0.0,0 STARLINK-3086,1 49178U 21082BA  24154.31613783  .00000670  00000-0  63922-4 0  9999,2 49178  69.9994 121.6605 0002864 269.4396  90.6435 14.98325570150464,6950.207,96.107,574.062,570.081,0.0
49178.0,STARLINK-3086,PAYLOAD,2024-06-02 20:24:18,14.98333111,0.0003236,69.9984,120.314,272.7046,87.3742,0.00016311,1.854e-05,0.0,0 STARLINK-3086,1 49178U 21082BA  24154.85021141  .00001854  00000-0  16311-3 0  9993,2 49178  69.9984 120.3140 0003236 272.7046  87.3742 14.98333111150549,6950.183,96.107,574.297,569.799,0.0
49178.0,STARLINK-3086,PAYLOAD,2024-06-03 07:37:14,14.98341866,0.0003052,69.9989,119.1357,270.9138,89.1671,0.00025161,2.911e-05,0.0,0 STARLINK-3086,1 49178U 21082BA  24155.31752434  .00002911  00000-0  25161-3 0  9999,2 49178  69.9989 119.1357 0003052 270.9138  89.1671 14.98341866150613,6950.156,96.106,574.142,569.9,0.0
49178.0,STARLINK-3086,PAYLOAD,2024-06-03 20:26:18,14.98341082,0.0003151,69.9989,117.7891,275.572,84.5079,0.0003202,3.731e-05,0.0,0 STARLINK-3086,1 49178U 21082BA  24155.85160469  .00003731  00000-0  32020-3 0  9992,2 49178  69.9989 117.7891 0003151 275.5720  84.5079 14.98341082150697,6950.159,96.106,574.214,569.834,0.0
49178.0,STARLINK-3086,PAYLOAD,2024-06-04 04:26:58,14.98335955,0.0003291,69.9989,116.9476,278.1465,81.9321,0.00059235,6.983e-05,0.0,0 STARLINK-3086,1 49178U 21082BA  24156.18540140  .00006983  00000-0  59235-3 0  9996,2 49178  69.9989 116.9476 0003291 278.1465  81.9321 14.98335955150746,6950.174,96.107,574.327,569.752,0.0
49178.0,STARLINK-3086,PAYLOAD,2024-06-04 07:39:14,14.98340995,0.0003195,69.9991,116.6107,277.4574,82.6222,0.00061388,7.241e-05,0.0,0 STARLINK-3086,1 49178U 21082BA  24156.31891767  .00007241  00000-0  61388-3 0  9995,2 49178  69.9991 116.6107 0003195 277.4574  82.6222 14.98340995150763,6950.159,96.106,574.244,569.803,0.0
49178.0,STARLINK-3086,PAYLOAD,2024-06-04 14:03:46,14.98366876,0.0002932,69.9995,115.937,276.0356,84.0469,-0.00024611,-3.031e-05,0.0,0 STARLINK-3086,1 49178U 21082BA  24156.58595224 -.00003031  00000-0 -24611-3 0  9996,2 49178  69.9995 115.9370 0002932 276.0356  84.0469 14.98366876150802,6950.079,96.105,573.982,569.906,0.0
49178.0,STARLINK-3086,PAYLOAD,2024-06-05 04:28:59,14.98340926,0.0002353,70.0013,114.4247,261.0094,99.0799,-9.99e-07,-1.05e-06,0.0,0 STARLINK-3086,1 49178U 21082BA  24157.18680077 -.00000105  00000-0 -99900-6 0  9999,2 49178  70.0013 114.4247 0002353 261.0094  99.0799 14.98340926150892,6950.159,96.106,573.659,570.389,0.0
49178.0,STARLINK-3086,PAYLOAD,2024-06-05 14:05:47,14.98347422,0.0002463,70.0013,113.4129,270.1128,89.9749,-0.00033746,-4.119e-05,0.0,0 STARLINK-3086,1 49178U 21082BA  24157.58736033 -.00004119  00000-0 -33746-3 0  9999,2 49178  70.0013 113.4129 0002463 270.1128  89.9749 14.98347422150959,6950.139,96.106,573.716,570.292,0.0
49178.0,STARLINK-3086,PAYLOAD,2024-06-05 20:30:20,14.98339654,0.0002459,70.0005,112.7398,268.749,91.3387,-0.00011348,-1.447e-05,0.0,0 STARLINK-3086,1 49178U 21082BA  24157.85439893 -.00001447  00000-0 -11348-3 0  9998,2 49178  70.0005 112.7398 0002459 268.7490  91.3387 14.98339654150997,6950.163,96.106,573.737,570.319,0.0
49178.0,STARLINK-3086,PAYLOAD,2024-06-06 04:31:00,14.98337483,0.0002739,69.9999,111.8982,266.9755,93.1091,-0.0001615,-2.02e-05,0.0,0 STARLINK-3086,1 49178U 21082BA  24158.18819908 -.00002020  00000-0 -16150-3 0  9998,2 49178  69.9999 111.8982 0002739 266.9755  93.1091 14.98337483151047,6950.17,96.107,573.938,570.131,0.0
49178.0,STARLINK-3086,PAYLOAD,2024-06-06 06:07:08,14.98337495,0.0002734,69.9999,111.7299,267.0478,93.0368,-0.00015789,-1.977e-05,0.0,0 STARLINK-3086,1 49178U 21082BA  24158.25495867 -.00001977  00000-0 -15789-3 0  9997,2 49178  69.9999 111.7299 0002734 267.0478  93.0368 14.98337495151056,6950.17,96.107,573.935,570.135,0.0
49178.0,STARLINK-3086,PAYLOAD,2024-06-07 14:09:49,14.98333491,0.0002994,69.9991,108.3636,268.1992,91.8824,3.147e-05,2.83e-06,0.0,0 STARLINK-3086,1 49178U 21082BA  24159.59015562  .00000283  00000-0  31470-4 0  9998,2 49178  69.9991 108.3636 0002994 268.1992  91.8824 14.98333491151253,6950.182,96.107,574.128,569.966,0.0
